KUIPER-00053            
1 64513U 25134P   25196.31095631  .00011468  00000+0  33039-3 0  9995
2 64513  51.8760 225.4672 0002158 163.3632 196.7425 15.36200112  4601
KUIPER-00054            
1 64514U 25134Q   25196.44414478  .00016472  00000+0  47161-3 0  9995
2 64514  51.8749 224.8601 0002942 164.4768 195.6309 15.36062140  4568
KUIPER-00055            
1 64515U 25134R   25196.49985012  .00023785  00000+0  66310-3 0  9990
2 64515  51.8762 224.4858 0000579  83.7774 276.3278 15.36644059  4633
KUIPER-00056            
1 64516U 25134S   25196.51200619  .00023504  00000+0  67089-3 0  9990
2 64516  51.8730 224.5661 0003304 177.3981 182.7022 15.35911794  4630
KUIPER-00057            
1 64517U 25134T   25196.78386150  .00025764  00000+0  75586-3 0  9996
2 64517  51.8692 223.3793 0006392 185.9442 174.1469 15.34984234  4322
KUIPER-00058            
1 64518U 25134U   25196.77751850  .00017010  00000+0  49513-3 0  9995
2 64518  51.8707 223.3414 0004474 184.1723 175.9227 15.35512693  4218
KUIPER-00059            
1 64519U 25134V   25196.37121932  .00016004  00000+0  45008-3 0  9991
2 64519  51.8758 225.1183 0001233 112.4904 247.6213 15.36646535  4613
KUIPER-00060            
1 64520U 25134W   25196.37442235  .00016004  00000+0  45398-3 0  9997
2 64520  51.8754 225.1426 0002160 132.6531 227.4638 15.36377137  4606
